{
  "norad_id": 65871,
  "name": "STARLINK-35465",
  "history": [
    {
      "epoch": "2026-03-28T19:29:38.032800Z",
      "apogee_km": 475.7702551453922,
      "perigee_km": 474.64178368381545,
      "latitude_deg": 4.6257554736664056e-05,
      "longitude_deg": 86.69564263178923,
      "height_km": 475.84538800437343,
      "semi_major_axis_km": 6853.343019414604,
      "eccentricity": 8.233e-05,
      "inclination_deg": 53.1574,
      "raan_deg": 205.3314,
      "arg_perigee_deg": 62.659,
      "mean_anomaly_deg": 297.4495,
      "mean_motion_rev_day": 15.30203031
    }
  ]
}